<?xml version="1.0" encoding="UTF-8"?>
<gpx creator="map.copenhagenmarathon.dk" version="1.1"
	xsi:schemaLocation="http://www.topografix.com/GPX/1/1 http://www.topografix.com/GPX/11.xsd"
	xmlns="http://www.topografix.com/GPX/1/1"
	xmlns:xsi="http://www.w3.org/2001/XMLSchema-instance">
	<metadata>
		<name>Copenhagen marathon - 42.195 km</name>
		<link href="https://map.copenhagenmarathon.dk/">
			<text>Copenhagen Marathon Map</text>
		</link>
		<time>2026-05-09T00:00:00Z</time>
	</metadata>
	<trk>
		<name>Copenhagen marathon - 42.195 km</name>
		<trkseg>
			<trkpt lat="55.703135" lon="12.569018">
				<ele>10</ele>
			</trkpt>
			<trkpt lat="55.702449" lon="12.570299">
				<ele>10</ele>
			</trkpt>
			<trkpt lat="55.701763" lon="12.571581">
				<ele>10</ele>
			</trkpt>
			<trkpt lat="55.701077" lon="12.572862">
				<ele>10</ele>
			</trkpt>
			<trkpt lat="55.700392" lon="12.574144">
				<ele>10</ele>
			</trkpt>
			<trkpt lat="55.699706" lon="12.575425">
				<ele>10</ele>
			</trkpt>
			<trkpt lat="55.699615" lon="12.575647">
				<ele>10</ele>
			</trkpt>
			<trkpt lat="55.699274" lon="12.57633">
				<ele>10</ele>
			</trkpt>
			<trkpt lat="55.699222" lon="12.576578">
				<ele>10</ele>
			</trkpt>
			<trkpt lat="55.699624" lon="12.577336">
				<ele>10</ele>
			</trkpt>
			<trkpt lat="55.699659" lon="12.577562">
				<ele>10</ele>
			</trkpt>
			<trkpt lat="55.699782" lon="12.577468">
				<ele>10</ele>
			</trkpt>
			<trkpt lat="55.699972" lon="12.577441">
				<ele>10</ele>
			</trkpt>
			<trkpt lat="55.700945" lon="12.577454">
				<ele>10</ele>
			</trkpt>
			<trkpt lat="55.702622" lon="12.577392">
				<ele>10</ele>
			</trkpt>
			<trkpt lat="55.703337" lon="12.577404">
				<ele>10</ele>
			</trkpt>
			<trkpt lat="55.70437" lon="12.57737">
				<ele>10</ele>
			</trkpt>
			<trkpt lat="55.704634" lon="12.577354">
				<ele>10</ele>
			</trkpt>
			<trkpt lat="55.705677" lon="12.577347">
				<ele>10</ele>
			</trkpt>
			<trkpt lat="55.70672" lon="12.577339">
				<ele>10</ele>
			</trkpt>
			<trkpt lat="55.707763" lon="12.577332">
				<ele>10</ele>
			</trkpt>
			<trkpt lat="55.708807" lon="12.577324">
				<ele>10</ele>
			</trkpt>
			<trkpt lat="55.708949" lon="12.577322">
				<ele>10</ele>
			</trkpt>
			<trkpt lat="55.709189" lon="12.57736">
				<ele>10</ele>
			</trkpt>
			<trkpt lat="55.708874" lon="12.575672">
				<ele>10</ele>
			</trkpt>
			<trkpt lat="55.708716" lon="12.57474">
				<ele>10</ele>
			</trkpt>
			<trkpt lat="55.708309" lon="12.57255">
				<ele>10</ele>
			</trkpt>
			<trkpt lat="55.707881" lon="12.570314">
				<ele>10</ele>
			</trkpt>
			<trkpt lat="55.708135" lon="12.57022">
				<ele>10</ele>
			</trkpt>
			<trkpt lat="55.70911" lon="12.569953">
				<ele>10</ele>
			</trkpt>
			<trkpt lat="55.710085" lon="12.569686">
				<ele>10</ele>
			</trkpt>
			<trkpt lat="55.71136" lon="12.569369">
				<ele>10</ele>
			</trkpt>
			<trkpt lat="55.713072" lon="12.568897">
				<ele>10</ele>
			</trkpt>
			<trkpt lat="55.713987" lon="12.568648">
				<ele>10</ele>
			</trkpt>
			<trkpt lat="55.714072" lon="12.569782">
				<ele>10</ele>
			</trkpt>
			<trkpt lat="55.714243" lon="12.571662">
				<ele>10</ele>
			</trkpt>
			<trkpt lat="55.714414" lon="12.573542">
				<ele>10</ele>
			</trkpt>
			<trkpt lat="55.714483" lon="12.574165">
				<ele>10</ele>
			</trkpt>
			<trkpt lat="55.71456" lon="12.5744">
				<ele>10</ele>
			</trkpt>
			<trkpt lat="55.71458" lon="12.574648">
				<ele>10</ele>
			</trkpt>
			<trkpt lat="55.714544" lon="12.574909">
				<ele>10</ele>
			</trkpt>
			<trkpt lat="55.714755" lon="12.577447">
				<ele>10</ele>
			</trkpt>
			<trkpt lat="55.714284" lon="12.577449">
				<ele>10</ele>
			</trkpt>
			<trkpt lat="55.714002" lon="12.577535">
				<ele>10</ele>
			</trkpt>
			<trkpt lat="55.712922" lon="12.577528">
				<ele>10</ele>
			</trkpt>
			<trkpt lat="55.711988" lon="12.577542">
				<ele>10</ele>
			</trkpt>
			<trkpt lat="55.711054" lon="12.577555">
				<ele>10</ele>
			</trkpt>
			<trkpt lat="55.710144" lon="12.577595">
				<ele>10</ele>
			</trkpt>
			<trkpt lat="55.709729" lon="12.57763">
				<ele>10</ele>
			</trkpt>
			<trkpt lat="55.709225" lon="12.577574">
				<ele>10</ele>
			</trkpt>
			<trkpt lat="55.709128" lon="12.577673">
				<ele>10</ele>
			</trkpt>
			<trkpt lat="55.709155" lon="12.577915">
				<ele>10</ele>
			</trkpt>
			<trkpt lat="55.709164" lon="12.578182">
				<ele>10</ele>
			</trkpt>
			<trkpt lat="55.70916" lon="12.579352">
				<ele>10</ele>
			</trkpt>
			<trkpt lat="55.709137" lon="12.579644">
				<ele>10</ele>
			</trkpt>
			<trkpt lat="55.709125" lon="12.581965">
				<ele>10</ele>
			</trkpt>
			<trkpt lat="55.709113" lon="12.584286">
				<ele>10</ele>
			</trkpt>
			<trkpt lat="55.709098" lon="12.584479">
				<ele>10</ele>
			</trkpt>
			<trkpt lat="55.709037" lon="12.584694">
				<ele>10</ele>
			</trkpt>
			<trkpt lat="55.708967" lon="12.584826">
				<ele>10</ele>
			</trkpt>
			<trkpt lat="55.708864" lon="12.58494">
				<ele>10</ele>
			</trkpt>
			<trkpt lat="55.707801" lon="12.585471">
				<ele>10</ele>
			</trkpt>
			<trkpt lat="55.706738" lon="12.586001">
				<ele>10</ele>
			</trkpt>
			<trkpt lat="55.705913" lon="12.586375">
				<ele>10</ele>
			</trkpt>
			<trkpt lat="55.704786" lon="12.586959">
				<ele>10</ele>
			</trkpt>
			<trkpt lat="55.704298" lon="12.58728">
				<ele>10</ele>
			</trkpt>
			<trkpt lat="55.703868" lon="12.58761">
				<ele>10</ele>
			</trkpt>
			<trkpt lat="55.70341" lon="12.587762">
				<ele>10</ele>
			</trkpt>
			<trkpt lat="55.703215" lon="12.585598">
				<ele>10</ele>
			</trkpt>
			<trkpt lat="55.703154" lon="12.585327">
				<ele>10</ele>
			</trkpt>
			<trkpt lat="55.702553" lon="12.583629">
				<ele>10</ele>
			</trkpt>
			<trkpt lat="55.701952" lon="12.581931">
				<ele>10</ele>
			</trkpt>
			<trkpt lat="55.700794" lon="12.579779">
				<ele>10</ele>
			</trkpt>
			<trkpt lat="55.700474" lon="12.579178">
				<ele>10</ele>
			</trkpt>
			<trkpt lat="55.700411" lon="12.579109">
				<ele>10</ele>
			</trkpt>
			<trkpt lat="55.700168" lon="12.578667">
				<ele>10</ele>
			</trkpt>
			<trkpt lat="55.70011" lon="12.578498">
				<ele>10</ele>
			</trkpt>
			<trkpt lat="55.699753" lon="12.577836">
				<ele>10</ele>
			</trkpt>
			<trkpt lat="55.699687" lon="12.577675">
				<ele>10</ele>
			</trkpt>
			<trkpt lat="55.699657" lon="12.577591">
				<ele>10</ele>
			</trkpt>
			<trkpt lat="55.699551" lon="12.577624">
				<ele>10</ele>
			</trkpt>
			<trkpt lat="55.699285" lon="12.577847">
				<ele>10</ele>
			</trkpt>
			<trkpt lat="55.699179" lon="12.578019">
				<ele>10</ele>
			</trkpt>
			<trkpt lat="55.698619" lon="12.578374">
				<ele>10</ele>
			</trkpt>
			<trkpt lat="55.698429" lon="12.578396">
				<ele>10</ele>
			</trkpt>
			<trkpt lat="55.697654" lon="12.578881">
				<ele>10</ele>
			</trkpt>
			<trkpt lat="55.697321" lon="12.579107">
				<ele>10</ele>
			</trkpt>
			<trkpt lat="55.696896" lon="12.57938">
				<ele>10</ele>
			</trkpt>
			<trkpt lat="55.696089" lon="12.579906">
				<ele>10</ele>
			</trkpt>
			<trkpt lat="55.695972" lon="12.579728">
				<ele>10</ele>
			</trkpt>
			<trkpt lat="55.695168" lon="12.57806">
				<ele>10</ele>
			</trkpt>
			<trkpt lat="55.694363" lon="12.576392">
				<ele>10</ele>
			</trkpt>
			<trkpt lat="55.694222" lon="12.576191">
				<ele>10</ele>
			</trkpt>
			<trkpt lat="55.693936" lon="12.575872">
				<ele>10</ele>
			</trkpt>
			<trkpt lat="55.692927" lon="12.57506">
				<ele>10</ele>
			</trkpt>
			<trkpt lat="55.692774" lon="12.574887">
				<ele>10</ele>
			</trkpt>
			<trkpt lat="55.692651" lon="12.574625">
				<ele>10</ele>
			</trkpt>
			<trkpt lat="55.69134" lon="12.57252">
				<ele>10</ele>
			</trkpt>
			<trkpt lat="55.691119" lon="12.572265">
				<ele>10</ele>
			</trkpt>
			<trkpt lat="55.69103" lon="12.572137">
				<ele>10</ele>
			</trkpt>
			<trkpt lat="55.690057" lon="12.574435">
				<ele>10</ele>
			</trkpt>
			<trkpt lat="55.689968" lon="12.574617">
				<ele>10</ele>
			</trkpt>
			<trkpt lat="55.68989" lon="12.574671">
				<ele>10</ele>
			</trkpt>
			<trkpt lat="55.689482" lon="12.574328">
				<ele>10</ele>
			</trkpt>
			<trkpt lat="55.689348" lon="12.574475">
				<ele>10</ele>
			</trkpt>
			<trkpt lat="55.688316" lon="12.576659">
				<ele>10</ele>
			</trkpt>
			<trkpt lat="55.687577" lon="12.577781">
				<ele>10</ele>
			</trkpt>
			<trkpt lat="55.687474" lon="12.577897">
				<ele>10</ele>
			</trkpt>
			<trkpt lat="55.687401" lon="12.577902">
				<ele>10</ele>
			</trkpt>
			<trkpt lat="55.687247" lon="12.577816">
				<ele>10</ele>
			</trkpt>
			<trkpt lat="55.687052" lon="12.577499">
				<ele>10</ele>
			</trkpt>
			<trkpt lat="55.686653" lon="12.576794">
				<ele>10</ele>
			</trkpt>
			<trkpt lat="55.686569" lon="12.57658">
				<ele>10</ele>
			</trkpt>
			<trkpt lat="55.685885" lon="12.575518">
				<ele>10</ele>
			</trkpt>
			<trkpt lat="55.6852" lon="12.574455">
				<ele>10</ele>
			</trkpt>
			<trkpt lat="55.685149" lon="12.574316">
				<ele>10</ele>
			</trkpt>
			<trkpt lat="55.684919" lon="12.573955">
				<ele>10</ele>
			</trkpt>
			<trkpt lat="55.684702" lon="12.573612">
				<ele>10</ele>
			</trkpt>
			<trkpt lat="55.684588" lon="12.573559">
				<ele>10</ele>
			</trkpt>
			<trkpt lat="55.684136" lon="12.575302">
				<ele>10</ele>
			</trkpt>
			<trkpt lat="55.683684" lon="12.577045">
				<ele>10</ele>
			</trkpt>
			<trkpt lat="55.683231" lon="12.578788">
				<ele>10</ele>
			</trkpt>
			<trkpt lat="55.682779" lon="12.580531">
				<ele>10</ele>
			</trkpt>
			<trkpt lat="55.682711" lon="12.58069">
				<ele>10</ele>
			</trkpt>
			<trkpt lat="55.68259" lon="12.580776">
				<ele>10</ele>
			</trkpt>
			<trkpt lat="55.681542" lon="12.581054">
				<ele>10</ele>
			</trkpt>
			<trkpt lat="55.681396" lon="12.581054">
				<ele>10</ele>
			</trkpt>
			<trkpt lat="55.681304" lon="12.581294">
				<ele>10</ele>
			</trkpt>
			<trkpt lat="55.680848" lon="12.581741">
				<ele>10</ele>
			</trkpt>
			<trkpt lat="55.680612" lon="12.581886">
				<ele>10</ele>
			</trkpt>
			<trkpt lat="55.680436" lon="12.58203">
				<ele>10</ele>
			</trkpt>
			<trkpt lat="55.679778" lon="12.582406">
				<ele>10</ele>
			</trkpt>
			<trkpt lat="55.679311" lon="12.582668">
				<ele>10</ele>
			</trkpt>
			<trkpt lat="55.678579" lon="12.583135">
				<ele>10</ele>
			</trkpt>
			<trkpt lat="55.677871" lon="12.583712">
				<ele>10</ele>
			</trkpt>
			<trkpt lat="55.677412" lon="12.584278">
				<ele>10</ele>
			</trkpt>
			<trkpt lat="55.677258" lon="12.584438">
				<ele>10</ele>
			</trkpt>
			<trkpt lat="55.677125" lon="12.584519">
				<ele>10</ele>
			</trkpt>
			<trkpt lat="55.677008" lon="12.584549">
				<ele>10</ele>
			</trkpt>
			<trkpt lat="55.676222" lon="12.584677">
				<ele>10</ele>
			</trkpt>
			<trkpt lat="55.676061" lon="12.584704">
				<ele>10</ele>
			</trkpt>
			<trkpt lat="55.675907" lon="12.58472">
				<ele>10</ele>
			</trkpt>
			<trkpt lat="55.675815" lon="12.58478">
				<ele>10</ele>
			</trkpt>
			<trkpt lat="55.67571" lon="12.584838">
				<ele>10</ele>
			</trkpt>
			<trkpt lat="55.675582" lon="12.585047">
				<ele>10</ele>
			</trkpt>
			<trkpt lat="55.675301" lon="12.586288">
				<ele>10</ele>
			</trkpt>
			<trkpt lat="55.675176" lon="12.586518">
				<ele>10</ele>
			</trkpt>
			<trkpt lat="55.673869" lon="12.588688">
				<ele>10</ele>
			</trkpt>
			<trkpt lat="55.673432" lon="12.589521">
				<ele>10</ele>
			</trkpt>
			<trkpt lat="55.67306" lon="12.59023">
				<ele>10</ele>
			</trkpt>
			<trkpt lat="55.672559" lon="12.591128">
				<ele>10</ele>
			</trkpt>
			<trkpt lat="55.672082" lon="12.592056">
				<ele>10</ele>
			</trkpt>
			<trkpt lat="55.672005" lon="12.592124">
				<ele>10</ele>
			</trkpt>
			<trkpt lat="55.671127" lon="12.593856">
				<ele>10</ele>
			</trkpt>
			<trkpt lat="55.670751" lon="12.594513">
				<ele>10</ele>
			</trkpt>
			<trkpt lat="55.670258" lon="12.595051">
				<ele>10</ele>
			</trkpt>
			<trkpt lat="55.66982" lon="12.595396">
				<ele>10</ele>
			</trkpt>
			<trkpt lat="55.669533" lon="12.595456">
				<ele>10</ele>
			</trkpt>
			<trkpt lat="55.669275" lon="12.595559">
				<ele>10</ele>
			</trkpt>
			<trkpt lat="55.668968" lon="12.595625">
				<ele>10</ele>
			</trkpt>
			<trkpt lat="55.668655" lon="12.595627">
				<ele>10</ele>
			</trkpt>
			<trkpt lat="55.668527" lon="12.595603">
				<ele>10</ele>
			</trkpt>
			<trkpt lat="55.66845" lon="12.595545">
				<ele>10</ele>
			</trkpt>
			<trkpt lat="55.668295" lon="12.595047">
				<ele>10</ele>
			</trkpt>
			<trkpt lat="55.668017" lon="12.593173">
				<ele>10</ele>
			</trkpt>
			<trkpt lat="55.667739" lon="12.591299">
				<ele>10</ele>
			</trkpt>
			<trkpt lat="55.667723" lon="12.591021">
				<ele>10</ele>
			</trkpt>
			<trkpt lat="55.667631" lon="12.590464">
				<ele>10</ele>
			</trkpt>
			<trkpt lat="55.667642" lon="12.590033">
				<ele>10</ele>
			</trkpt>
			<trkpt lat="55.667776" lon="12.587507">
				<ele>10</ele>
			</trkpt>
			<trkpt lat="55.667821" lon="12.587027">
				<ele>10</ele>
			</trkpt>
			<trkpt lat="55.668158" lon="12.584992">
				<ele>10</ele>
			</trkpt>
			<trkpt lat="55.668495" lon="12.582957">
				<ele>10</ele>
			</trkpt>
			<trkpt lat="55.66863" lon="12.582425">
				<ele>10</ele>
			</trkpt>
			<trkpt lat="55.66878" lon="12.582011">
				<ele>10</ele>
			</trkpt>
			<trkpt lat="55.669625" lon="12.580257">
				<ele>10</ele>
			</trkpt>
			<trkpt lat="55.670363" lon="12.578743">
				<ele>10</ele>
			</trkpt>
			<trkpt lat="55.6711" lon="12.577228">
				<ele>10</ele>
			</trkpt>
			<trkpt lat="55.67148" lon="12.576545">
				<ele>10</ele>
			</trkpt>
			<trkpt lat="55.671567" lon="12.576397">
				<ele>10</ele>
			</trkpt>
			<trkpt lat="55.671979" lon="12.575583">
				<ele>10</ele>
			</trkpt>
			<trkpt lat="55.672435" lon="12.574682">
				<ele>10</ele>
			</trkpt>
			<trkpt lat="55.672597" lon="12.574338">
				<ele>10</ele>
			</trkpt>
			<trkpt lat="55.672857" lon="12.573902">
				<ele>10</ele>
			</trkpt>
			<trkpt lat="55.673338" lon="12.575172">
				<ele>10</ele>
			</trkpt>
			<trkpt lat="55.67443" lon="12.573065">
				<ele>10</ele>
			</trkpt>
			<trkpt lat="55.67536" lon="12.57125">
				<ele>10</ele>
			</trkpt>
			<trkpt lat="55.676457" lon="12.569066">
				<ele>10</ele>
			</trkpt>
			<trkpt lat="55.676784" lon="12.5683">
				<ele>10</ele>
			</trkpt>
			<trkpt lat="55.67724" lon="12.56766">
				<ele>10</ele>
			</trkpt>
			<trkpt lat="55.677736" lon="12.567064">
				<ele>10</ele>
			</trkpt>
			<trkpt lat="55.678452" lon="12.566382">
				<ele>10</ele>
			</trkpt>
			<trkpt lat="55.678558" lon="12.566278">
				<ele>10</ele>
			</trkpt>
			<trkpt lat="55.678715" lon="12.566257">
				<ele>10</ele>
			</trkpt>
			<trkpt lat="55.678908" lon="12.566188">
				<ele>10</ele>
			</trkpt>
			<trkpt lat="55.679676" lon="12.567152">
				<ele>10</ele>
			</trkpt>
			<trkpt lat="55.681032" lon="12.56889">
				<ele>10</ele>
			</trkpt>
			<trkpt lat="55.681627" lon="12.569158">
				<ele>10</ele>
			</trkpt>
			<trkpt lat="55.682707" lon="12.570509">
				<ele>10</ele>
			</trkpt>
			<trkpt lat="55.682872" lon="12.57063">
				<ele>10</ele>
			</trkpt>
			<trkpt lat="55.682913" lon="12.570624">
				<ele>10</ele>
			</trkpt>
			<trkpt lat="55.682976" lon="12.570549">
				<ele>10</ele>
			</trkpt>
			<trkpt lat="55.683585" lon="12.568991">
				<ele>10</ele>
			</trkpt>
			<trkpt lat="55.684195" lon="12.567433">
				<ele>10</ele>
			</trkpt>
			<trkpt lat="55.68493" lon="12.568353">
				<ele>10</ele>
			</trkpt>
			<trkpt lat="55.685528" lon="12.566819">
				<ele>10</ele>
			</trkpt>
			<trkpt lat="55.686126" lon="12.565284">
				<ele>10</ele>
			</trkpt>
			<trkpt lat="55.686725" lon="12.56375">
				<ele>10</ele>
			</trkpt>
			<trkpt lat="55.687244" lon="12.562388">
				<ele>10</ele>
			</trkpt>
			<trkpt lat="55.687764" lon="12.561026">
				<ele>10</ele>
			</trkpt>
			<trkpt lat="55.688281" lon="12.559601">
				<ele>10</ele>
			</trkpt>
			<trkpt lat="55.689445" lon="12.56025">
				<ele>10</ele>
			</trkpt>
			<trkpt lat="55.690609" lon="12.560899">
				<ele>10</ele>
			</trkpt>
			<trkpt lat="55.690758" lon="12.561002">
				<ele>10</ele>
			</trkpt>
			<trkpt lat="55.690865" lon="12.561128">
				<ele>10</ele>
			</trkpt>
			<trkpt lat="55.690943" lon="12.561002">
				<ele>10</ele>
			</trkpt>
			<trkpt lat="55.691022" lon="12.560944">
				<ele>10</ele>
			</trkpt>
			<trkpt lat="55.691347" lon="12.560915">
				<ele>10</ele>
			</trkpt>
			<trkpt lat="55.692253" lon="12.561024">
				<ele>10</ele>
			</trkpt>
			<trkpt lat="55.693158" lon="12.561133">
				<ele>10</ele>
			</trkpt>
			<trkpt lat="55.694064" lon="12.561242">
				<ele>10</ele>
			</trkpt>
			<trkpt lat="55.69412" lon="12.561233">
				<ele>10</ele>
			</trkpt>
			<trkpt lat="55.694069" lon="12.560973">
				<ele>10</ele>
			</trkpt>
			<trkpt lat="55.693343" lon="12.55983">
				<ele>10</ele>
			</trkpt>
			<trkpt lat="55.692616" lon="12.558688">
				<ele>10</ele>
			</trkpt>
			<trkpt lat="55.69189" lon="12.557545">
				<ele>10</ele>
			</trkpt>
			<trkpt lat="55.691085" lon="12.556351">
				<ele>10</ele>
			</trkpt>
			<trkpt lat="55.690279" lon="12.555158">
				<ele>10</ele>
			</trkpt>
			<trkpt lat="55.690207" lon="12.555028">
				<ele>10</ele>
			</trkpt>
			<trkpt lat="55.690989" lon="12.553854">
				<ele>10</ele>
			</trkpt>
			<trkpt lat="55.691772" lon="12.55268">
				<ele>10</ele>
			</trkpt>
			<trkpt lat="55.692626" lon="12.551391">
				<ele>10</ele>
			</trkpt>
			<trkpt lat="55.693481" lon="12.550102">
				<ele>10</ele>
			</trkpt>
			<trkpt lat="55.694335" lon="12.548813">
				<ele>10</ele>
			</trkpt>
			<trkpt lat="55.695165" lon="12.549797">
				<ele>10</ele>
			</trkpt>
			<trkpt lat="55.69594" lon="12.550707">
				<ele>10</ele>
			</trkpt>
			<trkpt lat="55.696787" lon="12.55165">
				<ele>10</ele>
			</trkpt>
			<trkpt lat="55.697633" lon="12.552594">
				<ele>10</ele>
			</trkpt>
			<trkpt lat="55.698037" lon="12.551566">
				<ele>10</ele>
			</trkpt>
			<trkpt lat="55.698848" lon="12.549169">
				<ele>10</ele>
			</trkpt>
			<trkpt lat="55.69947" lon="12.54743">
				<ele>10</ele>
			</trkpt>
			<trkpt lat="55.69975" lon="12.54664">
				<ele>10</ele>
			</trkpt>
			<trkpt lat="55.70005" lon="12.54574">
				<ele>10</ele>
			</trkpt>
			<trkpt lat="55.70035" lon="12.54483">
				<ele>10</ele>
			</trkpt>
			<trkpt lat="55.70047" lon="12.54429">
				<ele>10</ele>
			</trkpt>
			<trkpt lat="55.70062" lon="12.54349">
				<ele>10</ele>
			</trkpt>
			<trkpt lat="55.700625" lon="12.543452">
				<ele>10</ele>
			</trkpt>
			<trkpt lat="55.700852" lon="12.541547">
				<ele>10</ele>
			</trkpt>
			<trkpt lat="55.701079" lon="12.539641">
				<ele>10</ele>
			</trkpt>
			<trkpt lat="55.701032" lon="12.53957">
				<ele>10</ele>
			</trkpt>
			<trkpt lat="55.700925" lon="12.539529">
				<ele>10</ele>
			</trkpt>
			<trkpt lat="55.70048" lon="12.539123">
				<ele>10</ele>
			</trkpt>
			<trkpt lat="55.700234" lon="12.539744">
				<ele>10</ele>
			</trkpt>
			<trkpt lat="55.699933" lon="12.540313">
				<ele>10</ele>
			</trkpt>
			<trkpt lat="55.699248" lon="12.54137">
				<ele>10</ele>
			</trkpt>
			<trkpt lat="55.698563" lon="12.542426">
				<ele>10</ele>
			</trkpt>
			<trkpt lat="55.697668" lon="12.543763">
				<ele>10</ele>
			</trkpt>
			<trkpt lat="55.696773" lon="12.545099">
				<ele>10</ele>
			</trkpt>
			<trkpt lat="55.696668" lon="12.544993">
				<ele>10</ele>
			</trkpt>
			<trkpt lat="55.695759" lon="12.544118">
				<ele>10</ele>
			</trkpt>
			<trkpt lat="55.6951" lon="12.543427">
				<ele>10</ele>
			</trkpt>
			<trkpt lat="55.694855" lon="12.543232">
				<ele>10</ele>
			</trkpt>
			<trkpt lat="55.693495" lon="12.541861">
				<ele>10</ele>
			</trkpt>
			<trkpt lat="55.6934" lon="12.542108">
				<ele>10</ele>
			</trkpt>
			<trkpt lat="55.693014" lon="12.54253">
				<ele>10</ele>
			</trkpt>
			<trkpt lat="55.692138" lon="12.543058">
				<ele>10</ele>
			</trkpt>
			<trkpt lat="55.691263" lon="12.543587">
				<ele>10</ele>
			</trkpt>
			<trkpt lat="55.690388" lon="12.544115">
				<ele>10</ele>
			</trkpt>
			<trkpt lat="55.690304" lon="12.544202">
				<ele>10</ele>
			</trkpt>
			<trkpt lat="55.689323" lon="12.543159">
				<ele>10</ele>
			</trkpt>
			<trkpt lat="55.689002" lon="12.542744">
				<ele>10</ele>
			</trkpt>
			<trkpt lat="55.689292" lon="12.541994">
				<ele>10</ele>
			</trkpt>
			<trkpt lat="55.689633" lon="12.541332">
				<ele>10</ele>
			</trkpt>
			<trkpt lat="55.690482" lon="12.539942">
				<ele>10</ele>
			</trkpt>
			<trkpt lat="55.690913" lon="12.539288">
				<ele>10</ele>
			</trkpt>
			<trkpt lat="55.691089" lon="12.539013">
				<ele>10</ele>
			</trkpt>
			<trkpt lat="55.69116" lon="12.538899">
				<ele>10</ele>
			</trkpt>
			<trkpt lat="55.691314" lon="12.538912">
				<ele>10</ele>
			</trkpt>
			<trkpt lat="55.691413" lon="12.538899">
				<ele>10</ele>
			</trkpt>
			<trkpt lat="55.691714" lon="12.538792">
				<ele>10</ele>
			</trkpt>
			<trkpt lat="55.692286" lon="12.538603">
				<ele>10</ele>
			</trkpt>
			<trkpt lat="55.692623" lon="12.538483">
				<ele>10</ele>
			</trkpt>
			<trkpt lat="55.693177" lon="12.538371">
				<ele>10</ele>
			</trkpt>
			<trkpt lat="55.693903" lon="12.538266">
				<ele>10</ele>
			</trkpt>
			<trkpt lat="55.694509" lon="12.538255">
				<ele>10</ele>
			</trkpt>
			<trkpt lat="55.694724" lon="12.538279">
				<ele>10</ele>
			</trkpt>
			<trkpt lat="55.69541" lon="12.5383">
				<ele>10</ele>
			</trkpt>
			<trkpt lat="55.695815" lon="12.538319">
				<ele>10</ele>
			</trkpt>
			<trkpt lat="55.695992" lon="12.538326">
				<ele>10</ele>
			</trkpt>
			<trkpt lat="55.696282" lon="12.538352">
				<ele>10</ele>
			</trkpt>
			<trkpt lat="55.696687" lon="12.538404">
				<ele>10</ele>
			</trkpt>
			<trkpt lat="55.696933" lon="12.538456">
				<ele>10</ele>
			</trkpt>
			<trkpt lat="55.696953" lon="12.53842">
				<ele>10</ele>
			</trkpt>
			<trkpt lat="55.696765" lon="12.53682">
				<ele>10</ele>
			</trkpt>
			<trkpt lat="55.696714" lon="12.53639">
				<ele>10</ele>
			</trkpt>
			<trkpt lat="55.69669" lon="12.536158">
				<ele>10</ele>
			</trkpt>
			<trkpt lat="55.696655" lon="12.535885">
				<ele>10</ele>
			</trkpt>
			<trkpt lat="55.69664" lon="12.5357">
				<ele>10</ele>
			</trkpt>
			<trkpt lat="55.696497" lon="12.535631">
				<ele>10</ele>
			</trkpt>
			<trkpt lat="55.695415" lon="12.534614">
				<ele>10</ele>
			</trkpt>
			<trkpt lat="55.69502" lon="12.534211">
				<ele>10</ele>
			</trkpt>
			<trkpt lat="55.694695" lon="12.533931">
				<ele>10</ele>
			</trkpt>
			<trkpt lat="55.694046" lon="12.533342">
				<ele>10</ele>
			</trkpt>
			<trkpt lat="55.693621" lon="12.53294">
				<ele>10</ele>
			</trkpt>
			<trkpt lat="55.69242" lon="12.531858">
				<ele>10</ele>
			</trkpt>
			<trkpt lat="55.691766" lon="12.531232">
				<ele>10</ele>
			</trkpt>
			<trkpt lat="55.690663" lon="12.530191">
				<ele>10</ele>
			</trkpt>
			<trkpt lat="55.68956" lon="12.52915">
				<ele>10</ele>
			</trkpt>
			<trkpt lat="55.688754" lon="12.528399">
				<ele>10</ele>
			</trkpt>
			<trkpt lat="55.687948" lon="12.527649">
				<ele>10</ele>
			</trkpt>
			<trkpt lat="55.687877" lon="12.527522">
				<ele>10</ele>
			</trkpt>
			<trkpt lat="55.687613" lon="12.527304">
				<ele>10</ele>
			</trkpt>
			<trkpt lat="55.687517" lon="12.527205">
				<ele>10</ele>
			</trkpt>
			<trkpt lat="55.686939" lon="12.526725">
				<ele>10</ele>
			</trkpt>
			<trkpt lat="55.686254" lon="12.526214">
				<ele>10</ele>
			</trkpt>
			<trkpt lat="55.685271" lon="12.525446">
				<ele>10</ele>
			</trkpt>
			<trkpt lat="55.684288" lon="12.524678">
				<ele>10</ele>
			</trkpt>
			<trkpt lat="55.684105" lon="12.524616">
				<ele>10</ele>
			</trkpt>
			<trkpt lat="55.683144" lon="12.523884">
				<ele>10</ele>
			</trkpt>
			<trkpt lat="55.682184" lon="12.523152">
				<ele>10</ele>
			</trkpt>
			<trkpt lat="55.681224" lon="12.52242">
				<ele>10</ele>
			</trkpt>
			<trkpt lat="55.680861" lon="12.522164">
				<ele>10</ele>
			</trkpt>
			<trkpt lat="55.680536" lon="12.521964">
				<ele>10</ele>
			</trkpt>
			<trkpt lat="55.68042" lon="12.521843">
				<ele>10</ele>
			</trkpt>
			<trkpt lat="55.680146" lon="12.521719">
				<ele>10</ele>
			</trkpt>
			<trkpt lat="55.679367" lon="12.52141">
				<ele>10</ele>
			</trkpt>
			<trkpt lat="55.679509" lon="12.522569">
				<ele>10</ele>
			</trkpt>
			<trkpt lat="55.67957" lon="12.523222">
				<ele>10</ele>
			</trkpt>
			<trkpt lat="55.67958" lon="12.523526">
				<ele>10</ele>
			</trkpt>
			<trkpt lat="55.67956" lon="12.523836">
				<ele>10</ele>
			</trkpt>
			<trkpt lat="55.679318" lon="12.525728">
				<ele>10</ele>
			</trkpt>
			<trkpt lat="55.679075" lon="12.52762">
				<ele>10</ele>
			</trkpt>
			<trkpt lat="55.678973" lon="12.528748">
				<ele>10</ele>
			</trkpt>
			<trkpt lat="55.678738" lon="12.530576">
				<ele>10</ele>
			</trkpt>
			<trkpt lat="55.678545" lon="12.532205">
				<ele>10</ele>
			</trkpt>
			<trkpt lat="55.6784" lon="12.533072">
				<ele>10</ele>
			</trkpt>
			<trkpt lat="55.678309" lon="12.533304">
				<ele>10</ele>
			</trkpt>
			<trkpt lat="55.677397" lon="12.533033">
				<ele>10</ele>
			</trkpt>
			<trkpt lat="55.676485" lon="12.532762">
				<ele>10</ele>
			</trkpt>
			<trkpt lat="55.675573" lon="12.53249">
				<ele>10</ele>
			</trkpt>
			<trkpt lat="55.67519" lon="12.532408">
				<ele>10</ele>
			</trkpt>
			<trkpt lat="55.67476" lon="12.532298">
				<ele>10</ele>
			</trkpt>
			<trkpt lat="55.674575" lon="12.534131">
				<ele>10</ele>
			</trkpt>
			<trkpt lat="55.67439" lon="12.535964">
				<ele>10</ele>
			</trkpt>
			<trkpt lat="55.674205" lon="12.537797">
				<ele>10</ele>
			</trkpt>
			<trkpt lat="55.67402" lon="12.53963">
				<ele>10</ele>
			</trkpt>
			<trkpt lat="55.67386" lon="12.54114">
				<ele>10</ele>
			</trkpt>
			<trkpt lat="55.67371" lon="12.54265">
				<ele>10</ele>
			</trkpt>
			<trkpt lat="55.67356" lon="12.54416">
				<ele>10</ele>
			</trkpt>
			<trkpt lat="55.67344" lon="12.54539">
				<ele>10</ele>
			</trkpt>
			<trkpt lat="55.67331" lon="12.54662">
				<ele>10</ele>
			</trkpt>
			<trkpt lat="55.67328" lon="12.54693">
				<ele>10</ele>
			</trkpt>
			<trkpt lat="55.673218" lon="12.547532">
				<ele>10</ele>
			</trkpt>
			<trkpt lat="55.673122" lon="12.548307">
				<ele>10</ele>
			</trkpt>
			<trkpt lat="55.672872" lon="12.549335">
				<ele>10</ele>
			</trkpt>
			<trkpt lat="55.672771" lon="12.549825">
				<ele>10</ele>
			</trkpt>
			<trkpt lat="55.672651" lon="12.549943">
				<ele>10</ele>
			</trkpt>
			<trkpt lat="55.672716" lon="12.551202">
				<ele>10</ele>
			</trkpt>
			<trkpt lat="55.672724" lon="12.551539">
				<ele>10</ele>
			</trkpt>
			<trkpt lat="55.672709" lon="12.551848">
				<ele>10</ele>
			</trkpt>
			<trkpt lat="55.672486" lon="12.554436">
				<ele>10</ele>
			</trkpt>
			<trkpt lat="55.672459" lon="12.554696">
				<ele>10</ele>
			</trkpt>
			<trkpt lat="55.672603" lon="12.554736">
				<ele>10</ele>
			</trkpt>
			<trkpt lat="55.67297" lon="12.55465">
				<ele>10</ele>
			</trkpt>
			<trkpt lat="55.673412" lon="12.554549">
				<ele>10</ele>
			</trkpt>
			<trkpt lat="55.673533" lon="12.554522">
				<ele>10</ele>
			</trkpt>
			<trkpt lat="55.673555" lon="12.554766">
				<ele>10</ele>
			</trkpt>
			<trkpt lat="55.673668" lon="12.555438">
				<ele>10</ele>
			</trkpt>
			<trkpt lat="55.673862" lon="12.556343">
				<ele>10</ele>
			</trkpt>
			<trkpt lat="55.673938" lon="12.55686">
				<ele>10</ele>
			</trkpt>
			<trkpt lat="55.67434" lon="12.55882">
				<ele>10</ele>
			</trkpt>
			<trkpt lat="55.674474" lon="12.55874">
				<ele>10</ele>
			</trkpt>
			<trkpt lat="55.67477" lon="12.558784">
				<ele>10</ele>
			</trkpt>
			<trkpt lat="55.675459" lon="12.559053">
				<ele>10</ele>
			</trkpt>
			<trkpt lat="55.676207" lon="12.55924">
				<ele>10</ele>
			</trkpt>
			<trkpt lat="55.676592" lon="12.559343">
				<ele>10</ele>
			</trkpt>
			<trkpt lat="55.677165" lon="12.559467">
				<ele>10</ele>
			</trkpt>
			<trkpt lat="55.677784" lon="12.559633">
				<ele>10</ele>
			</trkpt>
			<trkpt lat="55.677679" lon="12.561063">
				<ele>10</ele>
			</trkpt>
			<trkpt lat="55.677609" lon="12.561891">
				<ele>10</ele>
			</trkpt>
			<trkpt lat="55.677547" lon="12.562454">
				<ele>10</ele>
			</trkpt>
			<trkpt lat="55.677503" lon="12.562778">
				<ele>10</ele>
			</trkpt>
			<trkpt lat="55.677296" lon="12.563318">
				<ele>10</ele>
			</trkpt>
			<trkpt lat="55.677217" lon="12.563428">
				<ele>10</ele>
			</trkpt>
			<trkpt lat="55.676864" lon="12.563237">
				<ele>10</ele>
			</trkpt>
			<trkpt lat="55.676487" lon="12.563103">
				<ele>10</ele>
			</trkpt>
			<trkpt lat="55.676155" lon="12.56306">
				<ele>10</ele>
			</trkpt>
			<trkpt lat="55.675991" lon="12.563071">
				<ele>10</ele>
			</trkpt>
			<trkpt lat="55.67584" lon="12.563118">
				<ele>10</ele>
			</trkpt>
			<trkpt lat="55.675723" lon="12.563207">
				<ele>10</ele>
			</trkpt>
			<trkpt lat="55.675811" lon="12.56348">
				<ele>10</ele>
			</trkpt>
			<trkpt lat="55.67586" lon="12.563789">
				<ele>10</ele>
			</trkpt>
			<trkpt lat="55.67586" lon="12.56407">
				<ele>10</ele>
			</trkpt>
			<trkpt lat="55.675823" lon="12.564317">
				<ele>10</ele>
			</trkpt>
			<trkpt lat="55.67574" lon="12.564653">
				<ele>10</ele>
			</trkpt>
			<trkpt lat="55.675734" lon="12.564795">
				<ele>10</ele>
			</trkpt>
			<trkpt lat="55.675744" lon="12.564907">
				<ele>10</ele>
			</trkpt>
			<trkpt lat="55.675971" lon="12.565666">
				<ele>10</ele>
			</trkpt>
			<trkpt lat="55.676416" lon="12.566962">
				<ele>10</ele>
			</trkpt>
			<trkpt lat="55.676401" lon="12.567034">
				<ele>10</ele>
			</trkpt>
			<trkpt lat="55.675973" lon="12.567493">
				<ele>10</ele>
			</trkpt>
			<trkpt lat="55.675798" lon="12.56771">
				<ele>10</ele>
			</trkpt>
			<trkpt lat="55.675742" lon="12.567731">
				<ele>10</ele>
			</trkpt>
			<trkpt lat="55.675196" lon="12.566267">
				<ele>10</ele>
			</trkpt>
			<trkpt lat="55.674649" lon="12.564802">
				<ele>10</ele>
			</trkpt>
			<trkpt lat="55.674613" lon="12.564408">
				<ele>10</ele>
			</trkpt>
			<trkpt lat="55.674578" lon="12.564234">
				<ele>10</ele>
			</trkpt>
			<trkpt lat="55.674403" lon="12.563688">
				<ele>10</ele>
			</trkpt>
			<trkpt lat="55.674304" lon="12.563195">
				<ele>10</ele>
			</trkpt>
			<trkpt lat="55.67423" lon="12.562999">
				<ele>10</ele>
			</trkpt>
			<trkpt lat="55.674002" lon="12.562528">
				<ele>10</ele>
			</trkpt>
			<trkpt lat="55.673478" lon="12.561031">
				<ele>10</ele>
			</trkpt>
			<trkpt lat="55.673386" lon="12.560661">
				<ele>10</ele>
			</trkpt>
			<trkpt lat="55.673036" lon="12.559032">
				<ele>10</ele>
			</trkpt>
			<trkpt lat="55.672686" lon="12.557403">
				<ele>10</ele>
			</trkpt>
			<trkpt lat="55.672635" lon="12.557285">
				<ele>10</ele>
			</trkpt>
			<trkpt lat="55.672444" lon="12.556341">
				<ele>10</ele>
			</trkpt>
			<trkpt lat="55.672327" lon="12.55565">
				<ele>10</ele>
			</trkpt>
			<trkpt lat="55.672184" lon="12.555752">
				<ele>10</ele>
			</trkpt>
			<trkpt lat="55.671383" lon="12.556604">
				<ele>10</ele>
			</trkpt>
			<trkpt lat="55.670582" lon="12.557455">
				<ele>10</ele>
			</trkpt>
			<trkpt lat="55.670468" lon="12.557573">
				<ele>10</ele>
			</trkpt>
			<trkpt lat="55.669933" lon="12.55587">
				<ele>10</ele>
			</trkpt>
			<trkpt lat="55.669412" lon="12.554105">
				<ele>10</ele>
			</trkpt>
			<trkpt lat="55.66889" lon="12.55234">
				<ele>10</ele>
			</trkpt>
			<trkpt lat="55.668445" lon="12.550833">
				<ele>10</ele>
			</trkpt>
			<trkpt lat="55.668001" lon="12.549326">
				<ele>10</ele>
			</trkpt>
			<trkpt lat="55.667556" lon="12.547819">
				<ele>10</ele>
			</trkpt>
			<trkpt lat="55.667523" lon="12.54761">
				<ele>10</ele>
			</trkpt>
			<trkpt lat="55.667394" lon="12.545977">
				<ele>10</ele>
			</trkpt>
			<trkpt lat="55.667379" lon="12.545623">
				<ele>10</ele>
			</trkpt>
			<trkpt lat="55.667394" lon="12.545428">
				<ele>10</ele>
			</trkpt>
			<trkpt lat="55.667534" lon="12.544392">
				<ele>10</ele>
			</trkpt>
			<trkpt lat="55.667536" lon="12.54429">
				<ele>10</ele>
			</trkpt>
			<trkpt lat="55.666927" lon="12.543955">
				<ele>10</ele>
			</trkpt>
			<trkpt lat="55.666459" lon="12.543701">
				<ele>10</ele>
			</trkpt>
			<trkpt lat="55.666083" lon="12.543496">
				<ele>10</ele>
			</trkpt>
			<trkpt lat="55.665969" lon="12.543391">
				<ele>10</ele>
			</trkpt>
			<trkpt lat="55.665344" lon="12.543032">
				<ele>10</ele>
			</trkpt>
			<trkpt lat="55.6644" lon="12.542505">
				<ele>10</ele>
			</trkpt>
			<trkpt lat="55.66411" lon="12.54233">
				<ele>10</ele>
			</trkpt>
			<trkpt lat="55.663919" lon="12.542216">
				<ele>10</ele>
			</trkpt>
			<trkpt lat="55.663635" lon="12.54205">
				<ele>10</ele>
			</trkpt>
			<trkpt lat="55.663157" lon="12.541796">
				<ele>10</ele>
			</trkpt>
			<trkpt lat="55.663026" lon="12.541756">
				<ele>10</ele>
			</trkpt>
			<trkpt lat="55.66315" lon="12.542706">
				<ele>10</ele>
			</trkpt>
			<trkpt lat="55.663449" lon="12.544925">
				<ele>10</ele>
			</trkpt>
			<trkpt lat="55.6637" lon="12.546694">
				<ele>10</ele>
			</trkpt>
			<trkpt lat="55.663933" lon="12.548236">
				<ele>10</ele>
			</trkpt>
			<trkpt lat="55.664259" lon="12.55053">
				<ele>10</ele>
			</trkpt>
			<trkpt lat="55.664663" lon="12.55348">
				<ele>10</ele>
			</trkpt>
			<trkpt lat="55.664836" lon="12.554837">
				<ele>10</ele>
			</trkpt>
			<trkpt lat="55.664954" lon="12.556247">
				<ele>10</ele>
			</trkpt>
			<trkpt lat="55.665105" lon="12.557927">
				<ele>10</ele>
			</trkpt>
			<trkpt lat="55.665107" lon="12.558107">
				<ele>10</ele>
			</trkpt>
			<trkpt lat="55.665161" lon="12.558372">
				<ele>10</ele>
			</trkpt>
			<trkpt lat="55.665208" lon="12.558541">
				<ele>10</ele>
			</trkpt>
			<trkpt lat="55.665139" lon="12.558643">
				<ele>10</ele>
			</trkpt>
			<trkpt lat="55.664945" lon="12.558949">
				<ele>10</ele>
			</trkpt>
			<trkpt lat="55.663576" lon="12.560894">
				<ele>10</ele>
			</trkpt>
			<trkpt lat="55.663418" lon="12.561142">
				<ele>10</ele>
			</trkpt>
			<trkpt lat="55.663366" lon="12.561292">
				<ele>10</ele>
			</trkpt>
			<trkpt lat="55.663164" lon="12.561577">
				<ele>10</ele>
			</trkpt>
			<trkpt lat="55.663165" lon="12.561665">
				<ele>10</ele>
			</trkpt>
			<trkpt lat="55.663759" lon="12.562967">
				<ele>10</ele>
			</trkpt>
			<trkpt lat="55.664354" lon="12.564268">
				<ele>10</ele>
			</trkpt>
			<trkpt lat="55.664484" lon="12.564467">
				<ele>10</ele>
			</trkpt>
			<trkpt lat="55.664645" lon="12.56459">
				<ele>10</ele>
			</trkpt>
			<trkpt lat="55.665259" lon="12.56597">
				<ele>10</ele>
			</trkpt>
			<trkpt lat="55.665347" lon="12.566169">
				<ele>10</ele>
			</trkpt>
			<trkpt lat="55.666066" lon="12.567744">
				<ele>10</ele>
			</trkpt>
			<trkpt lat="55.666785" lon="12.569318">
				<ele>10</ele>
			</trkpt>
			<trkpt lat="55.667504" lon="12.570893">
				<ele>10</ele>
			</trkpt>
			<trkpt lat="55.667921" lon="12.57179">
				<ele>10</ele>
			</trkpt>
			<trkpt lat="55.668113" lon="12.572095">
				<ele>10</ele>
			</trkpt>
			<trkpt lat="55.668335" lon="12.572117">
				<ele>10</ele>
			</trkpt>
			<trkpt lat="55.668693" lon="12.57278">
				<ele>10</ele>
			</trkpt>
			<trkpt lat="55.66972" lon="12.574602">
				<ele>10</ele>
			</trkpt>
			<trkpt lat="55.670151" lon="12.575357">
				<ele>10</ele>
			</trkpt>
			<trkpt lat="55.670515" lon="12.576004">
				<ele>10</ele>
			</trkpt>
			<trkpt lat="55.670599" lon="12.576184">
				<ele>10</ele>
			</trkpt>
			<trkpt lat="55.670644" lon="12.576342">
				<ele>10</ele>
			</trkpt>
			<trkpt lat="55.670662" lon="12.576482">
				<ele>10</ele>
			</trkpt>
			<trkpt lat="55.670798" lon="12.577061">
				<ele>10</ele>
			</trkpt>
			<trkpt lat="55.67085" lon="12.577165">
				<ele>10</ele>
			</trkpt>
			<trkpt lat="55.671649" lon="12.578498">
				<ele>10</ele>
			</trkpt>
			<trkpt lat="55.671791" lon="12.578782">
				<ele>10</ele>
			</trkpt>
			<trkpt lat="55.671867" lon="12.57897">
				<ele>10</ele>
			</trkpt>
			<trkpt lat="55.672554" lon="12.580164">
				<ele>10</ele>
			</trkpt>
			<trkpt lat="55.6727" lon="12.580482">
				<ele>10</ele>
			</trkpt>
			<trkpt lat="55.673204" lon="12.581335">
				<ele>10</ele>
			</trkpt>
			<trkpt lat="55.67331" lon="12.581558">
				<ele>10</ele>
			</trkpt>
			<trkpt lat="55.673852" lon="12.583045">
				<ele>10</ele>
			</trkpt>
			<trkpt lat="55.673937" lon="12.583361">
				<ele>10</ele>
			</trkpt>
			<trkpt lat="55.673986" lon="12.583628">
				<ele>10</ele>
			</trkpt>
			<trkpt lat="55.674124" lon="12.584494">
				<ele>10</ele>
			</trkpt>
			<trkpt lat="55.674248" lon="12.584962">
				<ele>10</ele>
			</trkpt>
			<trkpt lat="55.67448" lon="12.585659">
				<ele>10</ele>
			</trkpt>
			<trkpt lat="55.674675" lon="12.586121">
				<ele>10</ele>
			</trkpt>
			<trkpt lat="55.674814" lon="12.586298">
				<ele>10</ele>
			</trkpt>
			<trkpt lat="55.674936" lon="12.586532">
				<ele>10</ele>
			</trkpt>
			<trkpt lat="55.675169" lon="12.586982">
				<ele>10</ele>
			</trkpt>
			<trkpt lat="55.675282" lon="12.587086">
				<ele>10</ele>
			</trkpt>
			<trkpt lat="55.675408" lon="12.587156">
				<ele>10</ele>
			</trkpt>
			<trkpt lat="55.675593" lon="12.587185">
				<ele>10</ele>
			</trkpt>
			<trkpt lat="55.675957" lon="12.587082">
				<ele>10</ele>
			</trkpt>
			<trkpt lat="55.676073" lon="12.587018">
				<ele>10</ele>
			</trkpt>
			<trkpt lat="55.676191" lon="12.586948">
				<ele>10</ele>
			</trkpt>
			<trkpt lat="55.677511" lon="12.586388">
				<ele>10</ele>
			</trkpt>
			<trkpt lat="55.67762" lon="12.586326">
				<ele>10</ele>
			</trkpt>
			<trkpt lat="55.67784" lon="12.586269">
				<ele>10</ele>
			</trkpt>
			<trkpt lat="55.678205" lon="12.586062">
				<ele>10</ele>
			</trkpt>
			<trkpt lat="55.679355" lon="12.585602">
				<ele>10</ele>
			</trkpt>
			<trkpt lat="55.679689" lon="12.585502">
				<ele>10</ele>
			</trkpt>
			<trkpt lat="55.679745" lon="12.585526">
				<ele>10</ele>
			</trkpt>
			<trkpt lat="55.679794" lon="12.585614">
				<ele>10</ele>
			</trkpt>
			<trkpt lat="55.679935" lon="12.58629">
				<ele>10</ele>
			</trkpt>
			<trkpt lat="55.680021" lon="12.586507">
				<ele>10</ele>
			</trkpt>
			<trkpt lat="55.680108" lon="12.586617">
				<ele>10</ele>
			</trkpt>
			<trkpt lat="55.680507" lon="12.586959">
				<ele>10</ele>
			</trkpt>
			<trkpt lat="55.68091" lon="12.58739">
				<ele>10</ele>
			</trkpt>
			<trkpt lat="55.681568" lon="12.587987">
				<ele>10</ele>
			</trkpt>
			<trkpt lat="55.682215" lon="12.588526">
				<ele>10</ele>
			</trkpt>
			<trkpt lat="55.682411" lon="12.588679">
				<ele>10</ele>
			</trkpt>
			<trkpt lat="55.68304" lon="12.58918">
				<ele>10</ele>
			</trkpt>
			<trkpt lat="55.68462" lon="12.59048">
				<ele>10</ele>
			</trkpt>
			<trkpt lat="55.685569" lon="12.591303">
				<ele>10</ele>
			</trkpt>
			<trkpt lat="55.687116" lon="12.592563">
				<ele>10</ele>
			</trkpt>
			<trkpt lat="55.687466" lon="12.592876">
				<ele>10</ele>
			</trkpt>
			<trkpt lat="55.687529" lon="12.592889">
				<ele>10</ele>
			</trkpt>
			<trkpt lat="55.687605" lon="12.592838">
				<ele>10</ele>
			</trkpt>
			<trkpt lat="55.68732" lon="12.59047">
				<ele>10</ele>
			</trkpt>
			<trkpt lat="55.687321" lon="12.590334">
				<ele>10</ele>
			</trkpt>
			<trkpt lat="55.687234" lon="12.59024">
				<ele>10</ele>
			</trkpt>
			<trkpt lat="55.6861" lon="12.589258">
				<ele>10</ele>
			</trkpt>
			<trkpt lat="55.685482" lon="12.588746">
				<ele>10</ele>
			</trkpt>
			<trkpt lat="55.684478" lon="12.587888">
				<ele>10</ele>
			</trkpt>
			<trkpt lat="55.683475" lon="12.587031">
				<ele>10</ele>
			</trkpt>
			<trkpt lat="55.682471" lon="12.586173">
				<ele>10</ele>
			</trkpt>
			<trkpt lat="55.681468" lon="12.585316">
				<ele>10</ele>
			</trkpt>
			<trkpt lat="55.681457" lon="12.58523">
				<ele>10</ele>
			</trkpt>
			<trkpt lat="55.681889" lon="12.583657">
				<ele>10</ele>
			</trkpt>
			<trkpt lat="55.682257" lon="12.582201">
				<ele>10</ele>
			</trkpt>
			<trkpt lat="55.682642" lon="12.580826">
				<ele>10</ele>
			</trkpt>
			<trkpt lat="55.682711" lon="12.580764">
				<ele>10</ele>
			</trkpt>
			<trkpt lat="55.682815" lon="12.58088">
				<ele>10</ele>
			</trkpt>
			<trkpt lat="55.683844" lon="12.581738">
				<ele>10</ele>
			</trkpt>
			<trkpt lat="55.684872" lon="12.582597">
				<ele>10</ele>
			</trkpt>
			<trkpt lat="55.686066" lon="12.583631">
				<ele>10</ele>
			</trkpt>
			<trkpt lat="55.686723" lon="12.584107">
				<ele>10</ele>
			</trkpt>
			<trkpt lat="55.68734" lon="12.584699">
				<ele>10</ele>
			</trkpt>
			<trkpt lat="55.68823" lon="12.585445">
				<ele>10</ele>
			</trkpt>
			<trkpt lat="55.68912" lon="12.58619">
				<ele>10</ele>
			</trkpt>
			<trkpt lat="55.69001" lon="12.586936">
				<ele>10</ele>
			</trkpt>
			<trkpt lat="55.690141" lon="12.586978">
				<ele>10</ele>
			</trkpt>
			<trkpt lat="55.69042" lon="12.586959">
				<ele>10</ele>
			</trkpt>
			<trkpt lat="55.69051" lon="12.586839">
				<ele>10</ele>
			</trkpt>
			<trkpt lat="55.690566" lon="12.58668">
				<ele>10</ele>
			</trkpt>
			<trkpt lat="55.690319" lon="12.586232">
				<ele>10</ele>
			</trkpt>
			<trkpt lat="55.690135" lon="12.585638">
				<ele>10</ele>
			</trkpt>
			<trkpt lat="55.690009" lon="12.585196">
				<ele>10</ele>
			</trkpt>
			<trkpt lat="55.689976" lon="12.584484">
				<ele>10</ele>
			</trkpt>
			<trkpt lat="55.689946" lon="12.584135">
				<ele>10</ele>
			</trkpt>
			<trkpt lat="55.689888" lon="12.583882">
				<ele>10</ele>
			</trkpt>
			<trkpt lat="55.689819" lon="12.583692">
				<ele>10</ele>
			</trkpt>
			<trkpt lat="55.689752" lon="12.583574">
				<ele>10</ele>
			</trkpt>
			<trkpt lat="55.68945" lon="12.582572">
				<ele>10</ele>
			</trkpt>
			<trkpt lat="55.68931" lon="12.582186">
				<ele>10</ele>
			</trkpt>
			<trkpt lat="55.688226" lon="12.580052">
				<ele>10</ele>
			</trkpt>
			<trkpt lat="55.687734" lon="12.579044">
				<ele>10</ele>
			</trkpt>
			<trkpt lat="55.687604" lon="12.578645">
				<ele>10</ele>
			</trkpt>
			<trkpt lat="55.687533" lon="12.57843">
				<ele>10</ele>
			</trkpt>
			<trkpt lat="55.687631" lon="12.578178">
				<ele>10</ele>
			</trkpt>
			<trkpt lat="55.687863" lon="12.577692">
				<ele>10</ele>
			</trkpt>
			<trkpt lat="55.688481" lon="12.576445">
				<ele>10</ele>
			</trkpt>
			<trkpt lat="55.6889" lon="12.575537">
				<ele>10</ele>
			</trkpt>
			<trkpt lat="55.689115" lon="12.575211">
				<ele>10</ele>
			</trkpt>
			<trkpt lat="55.689509" lon="12.574799">
				<ele>10</ele>
			</trkpt>
			<trkpt lat="55.689598" lon="12.574738">
				<ele>10</ele>
			</trkpt>
			<trkpt lat="55.689704" lon="12.574724">
				<ele>10</ele>
			</trkpt>
			<trkpt lat="55.69023" lon="12.575052">
				<ele>10</ele>
			</trkpt>
			<trkpt lat="55.690576" lon="12.575354">
				<ele>10</ele>
			</trkpt>
			<trkpt lat="55.690983" lon="12.575779">
				<ele>10</ele>
			</trkpt>
			<trkpt lat="55.692228" lon="12.576891">
				<ele>10</ele>
			</trkpt>
			<trkpt lat="55.693067" lon="12.577627">
				<ele>10</ele>
			</trkpt>
			<trkpt lat="55.693906" lon="12.578363">
				<ele>10</ele>
			</trkpt>
			<trkpt lat="55.694362" lon="12.578734">
				<ele>10</ele>
			</trkpt>
			<trkpt lat="55.695714" lon="12.580051">
				<ele>10</ele>
			</trkpt>
			<trkpt lat="55.695758" lon="12.580171">
				<ele>10</ele>
			</trkpt>
			<trkpt lat="55.695587" lon="12.580423">
				<ele>10</ele>
			</trkpt>
			<trkpt lat="55.695545" lon="12.580528">
				<ele>10</ele>
			</trkpt>
			<trkpt lat="55.694671" lon="12.582236">
				<ele>10</ele>
			</trkpt>
			<trkpt lat="55.694042" lon="12.583432">
				<ele>10</ele>
			</trkpt>
			<trkpt lat="55.693413" lon="12.584629">
				<ele>10</ele>
			</trkpt>
			<trkpt lat="55.693287" lon="12.584933">
				<ele>10</ele>
			</trkpt>
			<trkpt lat="55.693273" lon="12.585086">
				<ele>10</ele>
			</trkpt>
			<trkpt lat="55.693553" lon="12.585512">
				<ele>10</ele>
			</trkpt>
			<trkpt lat="55.693638" lon="12.58573">
				<ele>10</ele>
			</trkpt>
			<trkpt lat="55.694319" lon="12.586775">
				<ele>10</ele>
			</trkpt>
			<trkpt lat="55.695" lon="12.58782">
				<ele>10</ele>
			</trkpt>
			<trkpt lat="55.695524" lon="12.588637">
				<ele>10</ele>
			</trkpt>
			<trkpt lat="55.696446" lon="12.589905">
				<ele>10</ele>
			</trkpt>
			<trkpt lat="55.696673" lon="12.590257">
				<ele>10</ele>
			</trkpt>
			<trkpt lat="55.696842" lon="12.590442">
				<ele>10</ele>
			</trkpt>
			<trkpt lat="55.697116" lon="12.590587">
				<ele>10</ele>
			</trkpt>
			<trkpt lat="55.697421" lon="12.590624">
				<ele>10</ele>
			</trkpt>
			<trkpt lat="55.697661" lon="12.590599">
				<ele>10</ele>
			</trkpt>
			<trkpt lat="55.698732" lon="12.590386">
				<ele>10</ele>
			</trkpt>
			<trkpt lat="55.698852" lon="12.590637">
				<ele>10</ele>
			</trkpt>
			<trkpt lat="55.699637" lon="12.590305">
				<ele>10</ele>
			</trkpt>
			<trkpt lat="55.700029" lon="12.590045">
				<ele>10</ele>
			</trkpt>
			<trkpt lat="55.700785" lon="12.5895">
				<ele>10</ele>
			</trkpt>
			<trkpt lat="55.701305" lon="12.589127">
				<ele>10</ele>
			</trkpt>
			<trkpt lat="55.702103" lon="12.588569">
				<ele>10</ele>
			</trkpt>
			<trkpt lat="55.702244" lon="12.588504">
				<ele>10</ele>
			</trkpt>
			<trkpt lat="55.702842" lon="12.588198">
				<ele>10</ele>
			</trkpt>
			<trkpt lat="55.703444" lon="12.588077">
				<ele>10</ele>
			</trkpt>
			<trkpt lat="55.703623" lon="12.588013">
				<ele>10</ele>
			</trkpt>
			<trkpt lat="55.704142" lon="12.587698">
				<ele>10</ele>
			</trkpt>
			<trkpt lat="55.704785" lon="12.587304">
				<ele>10</ele>
			</trkpt>
			<trkpt lat="55.705797" lon="12.586807">
				<ele>10</ele>
			</trkpt>
			<trkpt lat="55.706784" lon="12.58628">
				<ele>10</ele>
			</trkpt>
			<trkpt lat="55.707966" lon="12.585722">
				<ele>10</ele>
			</trkpt>
			<trkpt lat="55.708239" lon="12.585548">
				<ele>10</ele>
			</trkpt>
			<trkpt lat="55.708895" lon="12.585207">
				<ele>10</ele>
			</trkpt>
			<trkpt lat="55.70902" lon="12.585094">
				<ele>10</ele>
			</trkpt>
			<trkpt lat="55.709161" lon="12.584837">
				<ele>10</ele>
			</trkpt>
			<trkpt lat="55.709235" lon="12.584595">
				<ele>10</ele>
			</trkpt>
			<trkpt lat="55.709274" lon="12.584386">
				<ele>10</ele>
			</trkpt>
			<trkpt lat="55.709276" lon="12.582456">
				<ele>10</ele>
			</trkpt>
			<trkpt lat="55.709271" lon="12.57994">
				<ele>10</ele>
			</trkpt>
			<trkpt lat="55.709267" lon="12.578035">
				<ele>10</ele>
			</trkpt>
			<trkpt lat="55.70924" lon="12.577676">
				<ele>10</ele>
			</trkpt>
			<trkpt lat="55.709101" lon="12.57756">
				<ele>10</ele>
			</trkpt>
			<trkpt lat="55.708757" lon="12.57753">
				<ele>10</ele>
			</trkpt>
			<trkpt lat="55.70846" lon="12.577502">
				<ele>10</ele>
			</trkpt>
			<trkpt lat="55.707923" lon="12.577476">
				<ele>10</ele>
			</trkpt>
			<trkpt lat="55.707255" lon="12.577491">
				<ele>10</ele>
			</trkpt>
			<trkpt lat="55.706785" lon="12.577473">
				<ele>10</ele>
			</trkpt>
			<trkpt lat="55.706165" lon="12.577486">
				<ele>10</ele>
			</trkpt>
			<trkpt lat="55.705005" lon="12.577467">
				<ele>10</ele>
			</trkpt>
			<trkpt lat="55.704499" lon="12.57754">
				<ele>10</ele>
			</trkpt>
			<trkpt lat="55.703147" lon="12.577497">
				<ele>10</ele>
			</trkpt>
			<trkpt lat="55.702329" lon="12.577472">
				<ele>10</ele>
			</trkpt>
			<trkpt lat="55.701808" lon="12.577419">
				<ele>10</ele>
			</trkpt>
			<trkpt lat="55.701001" lon="12.577448">
				<ele>10</ele>
			</trkpt>
			<trkpt lat="55.699955" lon="12.577452">
				<ele>10</ele>
			</trkpt>
			<trkpt lat="55.699921" lon="12.577455">
				<ele>10</ele>
			</trkpt>
			<trkpt lat="55.699767" lon="12.57749">
				<ele>10</ele>
			</trkpt>
			<trkpt lat="55.699653" lon="12.577581">
				<ele>10</ele>
			</trkpt>
			<trkpt lat="55.699629" lon="12.57736">
				<ele>10</ele>
			</trkpt>
			<trkpt lat="55.699214" lon="12.576591">
				<ele>10</ele>
			</trkpt>
			<trkpt lat="55.699255" lon="12.576342">
				<ele>10</ele>
			</trkpt>
			<trkpt lat="55.699641" lon="12.575613">
				<ele>10</ele>
			</trkpt>
			<trkpt lat="55.699687" lon="12.57545">
				<ele>10</ele>
			</trkpt>
			<trkpt lat="55.700378" lon="12.574164">
				<ele>10</ele>
			</trkpt>
			<trkpt lat="55.70107" lon="12.572879">
				<ele>10</ele>
			</trkpt>
			<trkpt lat="55.701761" lon="12.571594">
				<ele>10</ele>
			</trkpt>
			<trkpt lat="55.702452" lon="12.570309">
				<ele>10</ele>
			</trkpt>
			<trkpt lat="55.703144" lon="12.569024">
				<ele>10</ele>
			</trkpt>
		</trkseg>
	</trk>
</gpx>
